CCSDS_OMM_VERS = 2.0
CREATION_DATE  = 
ORIGINATOR     = 

OBJECT_NAME    = SL-16 R/B
OBJECT_ID      = 1998-045B
CENTER_NAME    = EARTH
REF_FRAME      = TEME
TIME_SYSTEM    = UTC
MEAN_ELEMENT_THEORY = SGP/SGP4

EPOCH          = 2026-03-09T17:08:48.193152
MEAN_MOTION    = 14.16190002
ECCENTRICITY   = .0006733
INCLINATION    = 71.0118
RA_OF_ASC_NODE = 181.5219
ARG_OF_PERICENTER = 8.0336
MEAN_ANOMALY   = 352.0894

EPHEMERIS_TYPE = 0
CLASSIFICATION_TYPE = U
NORAD_CAT_ID   = 25407
ELEMENT_SET_NO = 999
REV_AT_EPOCH   = 42710
BSTAR          = .11334E-3
MEAN_MOTION_DOT = .177E-5
MEAN_MOTION_DDOT = 0

CCSDS_OMM_VERS = 2.0
CREATION_DATE  = 
ORIGINATOR     = 

OBJECT_NAME    = ISS (ZARYA)
OBJECT_ID      = 1998-067A
CENTER_NAME    = EARTH
REF_FRAME      = TEME
TIME_SYSTEM    = UTC
MEAN_ELEMENT_THEORY = SGP/SGP4

EPOCH          = 2026-03-09T16:57:57.785184
MEAN_MOTION    = 15.48547200
ECCENTRICITY   = .000802
INCLINATION    = 51.6323
RA_OF_ASC_NODE = 72.2710
ARG_OF_PERICENTER = 174.6781
MEAN_ANOMALY   = 185.4294

EPHEMERIS_TYPE = 0
CLASSIFICATION_TYPE = U
NORAD_CAT_ID   = 25544
ELEMENT_SET_NO = 999
REV_AT_EPOCH   = 55633
BSTAR          = .1551E-3
MEAN_MOTION_DOT = .7976E-4
MEAN_MOTION_DDOT = 0

CCSDS_OMM_VERS = 2.0
CREATION_DATE  = 
ORIGINATOR     = 

OBJECT_NAME    = CZ-4B R/B
OBJECT_ID      = 1999-025C
CENTER_NAME    = EARTH
REF_FRAME      = TEME
TIME_SYSTEM    = UTC
MEAN_ELEMENT_THEORY = SGP/SGP4

EPOCH          = 2026-03-09T17:53:15.357696
MEAN_MOTION    = 14.18265283
ECCENTRICITY   = .0036733
INCLINATION    = 98.6626
RA_OF_ASC_NODE = 113.0256
ARG_OF_PERICENTER = 346.4710
MEAN_ANOMALY   = 122.2359

EPHEMERIS_TYPE = 0
CLASSIFICATION_TYPE = U
NORAD_CAT_ID   = 25732
ELEMENT_SET_NO = 999
REV_AT_EPOCH   = 38817
BSTAR          = .49046E-4
MEAN_MOTION_DOT = .58E-6
MEAN_MOTION_DDOT = 0

CCSDS_OMM_VERS = 2.0
CREATION_DATE  = 
ORIGINATOR     = 

OBJECT_NAME    = OKEAN-O
OBJECT_ID      = 1999-039A
CENTER_NAME    = EARTH
REF_FRAME      = TEME
TIME_SYSTEM    = UTC
MEAN_ELEMENT_THEORY = SGP/SGP4

EPOCH          = 2026-03-09T17:16:10.735680
MEAN_MOTION    = 14.80335142
ECCENTRICITY   = .0001272
INCLINATION    = 97.9442
RA_OF_ASC_NODE = 128.6108
ARG_OF_PERICENTER = 70.3084
MEAN_ANOMALY   = 289.8265

EPHEMERIS_TYPE = 0
CLASSIFICATION_TYPE = U
NORAD_CAT_ID   = 25860
ELEMENT_SET_NO = 999
REV_AT_EPOCH   = 43439
BSTAR          = .11362E-3
MEAN_MOTION_DOT = .814E-5
MEAN_MOTION_DDOT = 0

CCSDS_OMM_VERS = 2.0
CREATION_DATE  = 
ORIGINATOR     = 

OBJECT_NAME    = SL-16 R/B
OBJECT_ID      = 1999-039B
CENTER_NAME    = EARTH
REF_FRAME      = TEME
TIME_SYSTEM    = UTC
MEAN_ELEMENT_THEORY = SGP/SGP4

EPOCH          = 2026-03-09T18:24:22.966272
MEAN_MOTION    = 14.81731670
ECCENTRICITY   = .0013507
INCLINATION    = 97.9966
RA_OF_ASC_NODE = 127.8636
ARG_OF_PERICENTER = 255.8246
MEAN_ANOMALY   = 104.1466

EPHEMERIS_TYPE = 0
CLASSIFICATION_TYPE = U
NORAD_CAT_ID   = 25861
ELEMENT_SET_NO = 999
REV_AT_EPOCH   = 43687
BSTAR          = .98725E-4
MEAN_MOTION_DOT = .725E-5
MEAN_MOTION_DDOT = 0

CCSDS_OMM_VERS = 2.0
CREATION_DATE  = 
ORIGINATOR     = 

OBJECT_NAME    = DELTA 2 R/B
OBJECT_ID      = 1999-041E
CENTER_NAME    = EARTH
REF_FRAME      = TEME
TIME_SYSTEM    = UTC
MEAN_ELEMENT_THEORY = SGP/SGP4

EPOCH          = 2026-03-09T00:24:29.950848
MEAN_MOTION    = 14.11835935
ECCENTRICITY   = .05023745
INCLINATION    = 51.7627
RA_OF_ASC_NODE = 303.9675
ARG_OF_PERICENTER = 346.4504
MEAN_ANOMALY   = 12.3345

EPHEMERIS_TYPE = 0
CLASSIFICATION_TYPE = U
NORAD_CAT_ID   = 25876
ELEMENT_SET_NO = 999
REV_AT_EPOCH   = 36293
BSTAR          = .25878282E-3
MEAN_MOTION_DOT = .1371E-4
MEAN_MOTION_DDOT = 0

CCSDS_OMM_VERS = 2.0
CREATION_DATE  = 
ORIGINATOR     = 

OBJECT_NAME    = HELIOS 1B
OBJECT_ID      = 1999-064A
CENTER_NAME    = EARTH
REF_FRAME      = TEME
TIME_SYSTEM    = UTC
MEAN_ELEMENT_THEORY = SGP/SGP4

EPOCH          = 2026-03-09T17:07:56.855136
MEAN_MOTION    = 14.87699059
ECCENTRICITY   = .0002452
INCLINATION    = 98.1691
RA_OF_ASC_NODE = 330.9581
ARG_OF_PERICENTER = 75.0933
MEAN_ANOMALY   = 285.0554

EPHEMERIS_TYPE = 0
CLASSIFICATION_TYPE = U
NORAD_CAT_ID   = 25977
ELEMENT_SET_NO = 999
REV_AT_EPOCH   = 68526
BSTAR          = .24578E-3
MEAN_MOTION_DOT = .2181E-4
MEAN_MOTION_DDOT = 0

CCSDS_OMM_VERS = 2.0
CREATION_DATE  = 
ORIGINATOR     = 

OBJECT_NAME    = TERRA
OBJECT_ID      = 1999-068A
CENTER_NAME    = EARTH
REF_FRAME      = TEME
TIME_SYSTEM    = UTC
MEAN_ELEMENT_THEORY = SGP/SGP4

EPOCH          = 2026-03-09T20:26:34.934208
MEAN_MOTION    = 14.61014936
ECCENTRICITY   = .0002714
INCLINATION    = 97.9593
RA_OF_ASC_NODE = 122.2803
ARG_OF_PERICENTER = 150.9384
MEAN_ANOMALY   = 267.9776

EPHEMERIS_TYPE = 0
CLASSIFICATION_TYPE = U
NORAD_CAT_ID   = 25994
ELEMENT_SET_NO = 999
REV_AT_EPOCH   = 39510
BSTAR          = .12411E-3
MEAN_MOTION_DOT = .564E-5
MEAN_MOTION_DDOT = 0

CCSDS_OMM_VERS = 2.0
CREATION_DATE  = 
ORIGINATOR     = 

OBJECT_NAME    = SL-16 R/B
OBJECT_ID      = 2000-006B
CENTER_NAME    = EARTH
REF_FRAME      = TEME
TIME_SYSTEM    = UTC
MEAN_ELEMENT_THEORY = SGP/SGP4

EPOCH          = 2026-03-09T12:25:47.584704
MEAN_MOTION    = 14.15825785
ECCENTRICITY   = .00167935
INCLINATION    = 71.0010
RA_OF_ASC_NODE = 98.1989
ARG_OF_PERICENTER = 190.4760
MEAN_ANOMALY   = 169.6016

EPHEMERIS_TYPE = 0
CLASSIFICATION_TYPE = U
NORAD_CAT_ID   = 26070
ELEMENT_SET_NO = 999
REV_AT_EPOCH   = 34853
BSTAR          = -.2068296E-4
MEAN_MOTION_DOT = -.89E-6
MEAN_MOTION_DDOT = 0

CCSDS_OMM_VERS = 2.0
CREATION_DATE  = 
ORIGINATOR     = 

OBJECT_NAME    = TITAN 4B R/B
OBJECT_ID      = 2000-047B
CENTER_NAME    = EARTH
REF_FRAME      = TEME
TIME_SYSTEM    = UTC
MEAN_ELEMENT_THEORY = SGP/SGP4

EPOCH          = 2026-03-09T19:53:51.604800
MEAN_MOTION    = 15.09564407
ECCENTRICITY   = .0038619
INCLINATION    = 67.9901
RA_OF_ASC_NODE = 40.1183
ARG_OF_PERICENTER = 35.2415
MEAN_ANOMALY   = 325.1276

EPHEMERIS_TYPE = 0
CLASSIFICATION_TYPE = U
NORAD_CAT_ID   = 26474
ELEMENT_SET_NO = 999
REV_AT_EPOCH   = 39293
BSTAR          = .34987E-3
MEAN_MOTION_DOT = .5597E-4
MEAN_MOTION_DDOT = 0

CCSDS_OMM_VERS = 2.0
CREATION_DATE  = 
ORIGINATOR     = 

OBJECT_NAME    = ENVISAT
OBJECT_ID      = 2002-009A
CENTER_NAME    = EARTH
REF_FRAME      = TEME
TIME_SYSTEM    = UTC
MEAN_ELEMENT_THEORY = SGP/SGP4

EPOCH          = 2026-03-09T21:23:09.591936
MEAN_MOTION    = 14.39037082
ECCENTRICITY   = .0001301
INCLINATION    = 98.3728
RA_OF_ASC_NODE = 22.4836
ARG_OF_PERICENTER = 82.8070
MEAN_ANOMALY   = 343.1988

EPHEMERIS_TYPE = 0
CLASSIFICATION_TYPE = U
NORAD_CAT_ID   = 27386
ELEMENT_SET_NO = 999
REV_AT_EPOCH   = 25920
BSTAR          = .72747E-4
MEAN_MOTION_DOT = .182E-5
MEAN_MOTION_DDOT = 0

CCSDS_OMM_VERS = 2.0
CREATION_DATE  = 
ORIGINATOR     = 

OBJECT_NAME    = IDEFIX & ARIANE 42P R/B
OBJECT_ID      = 2002-021B
CENTER_NAME    = EARTH
REF_FRAME      = TEME
TIME_SYSTEM    = UTC
MEAN_ELEMENT_THEORY = SGP/SGP4

EPOCH          = 2026-03-09T18:36:46.968768
MEAN_MOTION    = 14.31026352
ECCENTRICITY   = .0011576
INCLINATION    = 98.5868
RA_OF_ASC_NODE = 7.3808
ARG_OF_PERICENTER = 182.0346
MEAN_ANOMALY   = 178.0792

EPHEMERIS_TYPE = 0
CLASSIFICATION_TYPE = U
NORAD_CAT_ID   = 27422
ELEMENT_SET_NO = 999
REV_AT_EPOCH   = 24403
BSTAR          = .16192E-3
MEAN_MOTION_DOT = .383E-5
MEAN_MOTION_DDOT = 0

